{"fetched_at":"2026-07-20T07:40:27.080Z","source":"https://celestrak.org/NORAD/elements/gp.php?GROUP=qianfan&FORMAT=JSON","constellation":"qianfan","records":[{"OBJECT_NAME":"QIANFAN-161","OBJECT_ID":"2026-108S","EPOCH":"2026-07-19T06:28:14.761920","CLASSIFICATION_TYPE":"U","MEAN_MOTION":13.69180318,"ECCENTRICITY":0.001797,"INCLINATION":89.0107,"RA_OF_ASC_NODE":18.7615,"ARG_OF_PERICENTER":29.2598,"MEAN_ANOMALY":330.9566,"EPHEMERIS_TYPE":0,"NORAD_CAT_ID":69120,"ELEMENT_SET_NO":999,"REV_AT_EPOCH":881,"BSTAR":-2.3532,"MEAN_MOTION_DOT":-0.01893836,"MEAN_MOTION_DDOT":0},{"OBJECT_NAME":"QIANFAN-162","OBJECT_ID":"2026-108T","EPOCH":"2026-07-19T01:33:24.895872","CLASSIFICATION_TYPE":"U","MEAN_MOTION":13.6111652,"ECCENTRICITY":0.0019634,"INCLINATION":89.0096,"RA_OF_ASC_NODE":18.8021,"ARG_OF_PERICENTER":2.7062,"MEAN_ANOMALY":357.4197,"EPHEMERIS_TYPE":0,"NORAD_CAT_ID":69121,"ELEMENT_SET_NO":999,"REV_AT_EPOCH":876,"BSTAR":-2.6313,"MEAN_MOTION_DOT":-0.0186159,"MEAN_MOTION_DDOT":0},{"OBJECT_NAME":"QIANFAN-163","OBJECT_ID":"2026-121A","EPOCH":"2026-07-08T23:20:22.023168","CLASSIFICATION_TYPE":"U","MEAN_MOTION":13.53894414,"ECCENTRICITY":0.00204807,"INCLINATION":89.0049,"RA_OF_ASC_NODE":298.3591,"ARG_OF_PERICENTER":118.563,"MEAN_ANOMALY":241.7588,"EPHEMERIS_TYPE":0,"NORAD_CAT_ID":69325,"ELEMENT_SET_NO":999,"REV_AT_EPOCH":511,"BSTAR":-0.000006639878,"MEAN_MOTION_DOT":8e-8,"MEAN_MOTION_DDOT":0},{"OBJECT_NAME":"QIANFAN-164","OBJECT_ID":"2026-121B","EPOCH":"2026-07-13T16:07:09.757344","CLASSIFICATION_TYPE":"U","MEAN_MOTION":13.49695561,"ECCENTRICITY":0.00228451,"INCLINATION":89.0183,"RA_OF_ASC_NODE":297.8725,"ARG_OF_PERICENTER":112.6356,"MEAN_ANOMALY":247.7213,"EPHEMERIS_TYPE":0,"NORAD_CAT_ID":69326,"ELEMENT_SET_NO":999,"REV_AT_EPOCH":574,"BSTAR":0.000078131509,"MEAN_MOTION_DOT":6.2e-7,"MEAN_MOTION_DDOT":0},{"OBJECT_NAME":"QIANFAN-165","OBJECT_ID":"2026-124A","EPOCH":"2026-07-19T16:21:37.278144","CLASSIFICATION_TYPE":"U","MEAN_MOTION":13.80425601,"ECCENTRICITY":0.0011522,"INCLINATION":89.0009,"RA_OF_ASC_NODE":358.4232,"ARG_OF_PERICENTER":76.948,"MEAN_ANOMALY":283.2973,"EPHEMERIS_TYPE":0,"NORAD_CAT_ID":69382,"ELEMENT_SET_NO":999,"REV_AT_EPOCH":638,"BSTAR":-2.0353,"MEAN_MOTION_DOT":-0.01987785,"MEAN_MOTION_DDOT":0},{"OBJECT_NAME":"QIANFAN-166","OBJECT_ID":"2026-124B","EPOCH":"2026-07-19T15:20:13.799040","CLASSIFICATION_TYPE":"U","MEAN_MOTION":13.83531345,"ECCENTRICITY":0.0012282,"INCLINATION":89.001,"RA_OF_ASC_NODE":358.4162,"ARG_OF_PERICENTER":45.9413,"MEAN_ANOMALY":314.2766,"EPHEMERIS_TYPE":0,"NORAD_CAT_ID":69383,"ELEMENT_SET_NO":999,"REV_AT_EPOCH":638,"BSTAR":-1.8791,"MEAN_MOTION_DOT":-0.01937443,"MEAN_MOTION_DDOT":0},{"OBJECT_NAME":"QIANFAN-167","OBJECT_ID":"2026-124C","EPOCH":"2026-07-17T21:00:41.588640","CLASSIFICATION_TYPE":"U","MEAN_MOTION":13.8400683,"ECCENTRICITY":0.00094646,"INCLINATION":88.9997,"RA_OF_ASC_NODE":358.6171,"ARG_OF_PERICENTER":61.7925,"MEAN_ANOMALY":298.42,"EPHEMERIS_TYPE":0,"NORAD_CAT_ID":69384,"ELEMENT_SET_NO":999,"REV_AT_EPOCH":613,"BSTAR":-2.0293116,"MEAN_MOTION_DOT":-0.02097118,"MEAN_MOTION_DDOT":0},{"OBJECT_NAME":"QIANFAN-168","OBJECT_ID":"2026-124D","EPOCH":"2026-07-19T03:19:18.223104","CLASSIFICATION_TYPE":"U","MEAN_MOTION":13.81567787,"ECCENTRICITY":0.0012274,"INCLINATION":88.9999,"RA_OF_ASC_NODE":358.4697,"ARG_OF_PERICENTER":78.8809,"MEAN_ANOMALY":281.3738,"EPHEMERIS_TYPE":0,"NORAD_CAT_ID":69385,"ELEMENT_SET_NO":999,"REV_AT_EPOCH":631,"BSTAR":-1.8444,"MEAN_MOTION_DOT":-0.01826293,"MEAN_MOTION_DDOT":0},{"OBJECT_NAME":"QIANFAN-169","OBJECT_ID":"2026-124E","EPOCH":"2026-07-19T16:46:22.670400","CLASSIFICATION_TYPE":"U","MEAN_MOTION":13.80915159,"ECCENTRICITY":0.0012157,"INCLINATION":89,"RA_OF_ASC_NODE":358.4059,"ARG_OF_PERICENTER":83.2628,"MEAN_ANOMALY":276.9923,"EPHEMERIS_TYPE":0,"NORAD_CAT_ID":69386,"ELEMENT_SET_NO":999,"REV_AT_EPOCH":639,"BSTAR":-1.9116,"MEAN_MOTION_DOT":-0.01868916,"MEAN_MOTION_DDOT":0},{"OBJECT_NAME":"QIANFAN-170","OBJECT_ID":"2026-124F","EPOCH":"2026-07-19T08:57:01.628064","CLASSIFICATION_TYPE":"U","MEAN_MOTION":13.86142397,"ECCENTRICITY":0.0007149,"INCLINATION":88.9992,"RA_OF_ASC_NODE":358.4308,"ARG_OF_PERICENTER":55.3691,"MEAN_ANOMALY":304.8153,"EPHEMERIS_TYPE":0,"NORAD_CAT_ID":69387,"ELEMENT_SET_NO":999,"REV_AT_EPOCH":635,"BSTAR":-1.7928,"MEAN_MOTION_DOT":-0.01931958,"MEAN_MOTION_DDOT":0},{"OBJECT_NAME":"QIANFAN-171","OBJECT_ID":"2026-124G","EPOCH":"2026-07-18T10:09:42.816672","CLASSIFICATION_TYPE":"U","MEAN_MOTION":13.87475735,"ECCENTRICITY":0.00030807,"INCLINATION":89.0004,"RA_OF_ASC_NODE":358.5303,"ARG_OF_PERICENTER":135.1347,"MEAN_ANOMALY":225.0075,"EPHEMERIS_TYPE":0,"NORAD_CAT_ID":69388,"ELEMENT_SET_NO":999,"REV_AT_EPOCH":622,"BSTAR":-1.8308999,"MEAN_MOTION_DOT":-0.02012415,"MEAN_MOTION_DDOT":0},{"OBJECT_NAME":"QIANFAN-172","OBJECT_ID":"2026-124H","EPOCH":"2026-07-18T17:01:29.178336","CLASSIFICATION_TYPE":"U","MEAN_MOTION":13.8821743,"ECCENTRICITY":0.00074734,"INCLINATION":88.9999,"RA_OF_ASC_NODE":358.4995,"ARG_OF_PERICENTER":24.8346,"MEAN_ANOMALY":335.3185,"EPHEMERIS_TYPE":0,"NORAD_CAT_ID":69389,"ELEMENT_SET_NO":999,"REV_AT_EPOCH":626,"BSTAR":-1.5980457,"MEAN_MOTION_DOT":-0.01774562,"MEAN_MOTION_DDOT":0},{"OBJECT_NAME":"QIANFAN-173","OBJECT_ID":"2026-124J","EPOCH":"2026-07-19T16:49:03.160128","CLASSIFICATION_TYPE":"U","MEAN_MOTION":13.8608817,"ECCENTRICITY":0.0006382,"INCLINATION":89.0002,"RA_OF_ASC_NODE":358.3875,"ARG_OF_PERICENTER":64.4629,"MEAN_ANOMALY":295.7201,"EPHEMERIS_TYPE":0,"NORAD_CAT_ID":69390,"ELEMENT_SET_NO":999,"REV_AT_EPOCH":640,"BSTAR":-1.7358,"MEAN_MOTION_DOT":-0.01852633,"MEAN_MOTION_DDOT":0},{"OBJECT_NAME":"QIANFAN-174","OBJECT_ID":"2026-124K","EPOCH":"2026-07-19T14:12:36.036864","CLASSIFICATION_TYPE":"U","MEAN_MOTION":13.91897391,"ECCENTRICITY":0.0008075,"INCLINATION":88.9999,"RA_OF_ASC_NODE":358.3901,"ARG_OF_PERICENTER":45.9041,"MEAN_ANOMALY":314.2797,"EPHEMERIS_TYPE":0,"NORAD_CAT_ID":69391,"ELEMENT_SET_NO":999,"REV_AT_EPOCH":638,"BSTAR":-1.5561,"MEAN_MOTION_DOT":-0.0183624,"MEAN_MOTION_DDOT":0},{"OBJECT_NAME":"QIANFAN-175","OBJECT_ID":"2026-124L","EPOCH":"2026-07-18T05:48:02.558592","CLASSIFICATION_TYPE":"U","MEAN_MOTION":13.9394905,"ECCENTRICITY":0.00077319,"INCLINATION":89.0012,"RA_OF_ASC_NODE":358.5397,"ARG_OF_PERICENTER":64.0413,"MEAN_ANOMALY":296.1558,"EPHEMERIS_TYPE":0,"NORAD_CAT_ID":69392,"ELEMENT_SET_NO":999,"REV_AT_EPOCH":620,"BSTAR":0.000016283575,"MEAN_MOTION_DOT":3.5e-7,"MEAN_MOTION_DDOT":0},{"OBJECT_NAME":"QIANFAN-176","OBJECT_ID":"2026-124M","EPOCH":"2026-07-18T17:56:00.036960","CLASSIFICATION_TYPE":"U","MEAN_MOTION":13.86254701,"ECCENTRICITY":0.00065518,"INCLINATION":89.0001,"RA_OF_ASC_NODE":358.486,"ARG_OF_PERICENTER":53.4344,"MEAN_ANOMALY":306.743,"EPHEMERIS_TYPE":0,"NORAD_CAT_ID":69393,"ELEMENT_SET_NO":999,"REV_AT_EPOCH":626,"BSTAR":-1.90158,"MEAN_MOTION_DOT":-0.02044943,"MEAN_MOTION_DDOT":0}]}
